COSMOS 2539             
1 44457U 19048A   26086.83786869  .00000062  00000+0  00000+0 0  9999
2 44457   0.0214 114.8447 0000294 127.6107 256.4221  1.00271017 24413
