{
  "norad_id": 44457,
  "name": "COSMOS 2539",
  "history": [
    {
      "epoch": "2026-03-27T20:06:31.854816Z",
      "apogee_km": 35788.053283489324,
      "perigee_km": 35785.567238198826,
      "latitude_deg": -0.0012544511960025232,
      "longitude_deg": 11.997579752108042,
      "height_km": 35786.586784030325,
      "semi_major_axis_km": 42164.94726084408,
      "eccentricity": 2.948e-05,
      "inclination_deg": 0.0214,
      "raan_deg": 114.8447,
      "arg_perigee_deg": 127.6107,
      "mean_anomaly_deg": 256.4221,
      "mean_motion_rev_day": 1.00271017
    }
  ]
}